{
  "type": "FeatureCollection",
  "name": "Sango core clipped OSM road features",
  "bbox": [
    3.877,
    7.423,
    3.884,
    7.432
  ],
  "metadata": {
    "source": "OpenStreetMap contributors via QuickOSM; staged as an Ibadan North road GeoPackage",
    "source_repository": "https://github.com/Oluwafunmilade-A/geodev-week02-ibadan-north",
    "source_repository_commit": "c0a8de3e7700e7f0990dc6e0e8111821744b2699",
    "source_snapshot_date": "2026-09-13",
    "source_geopackage_sha256": "34db4170cb421cbf18915868ce78550e7668faa9f189064fcd88110a5f17f8d1",
    "source_layer": "highway",
    "source_crs": "EPSG:4326",
    "source_layer_last_change": "2026-09-13T18:16:05.743Z",
    "source_layer_extent": [
      3.8591817,
      7.3359635,
      4.009407,
      7.4404545
    ],
    "license": "ODbL",
    "attribution": "© OpenStreetMap contributors",
    "clip_bbox_order": "west,south,east,north",
    "clip_method": "Liang-Barsky clipping of source LineString segments to the AOI rectangle",
    "source_rows_total": 4560,
    "candidate_rows_intersecting_bbox": 48,
    "exported_features": 46,
    "invalid_or_unsupported_geometries": 0,
    "line_parts": 47,
    "coordinate_count": 442,
    "named_features": 5,
    "highway_class_counts": {
      "primary": 2,
      "residential": 9,
      "secondary": 3,
      "service": 9,
      "unclassified": 23
    },
    "coordinate_graph": {
      "coordinate_rounding_decimal_places": 8,
      "unique_vertices": 389,
      "unique_undirected_edges": 395,
      "connected_components": 8,
      "component_vertex_counts_descending": [
        352,
        10,
        8,
        7,
        4,
        4,
        2,
        2
      ],
      "vertices_degree_3_or_more": 49,
      "warning": "Coordinate-snapped diagnostic only; does not validate OSM node IDs, grade separation, road rules, or ground truth."
    },
    "known_coverage_limit": "Source extent stops at latitude 7.4404545; this clip does not cover all of Agbowo or the complete UI campus.",
    "source_license_note": "The source GitHub repository has no declared repository license. This file contains only its documented OSM-derived road layer, retained under ODbL with attribution; no repository-authored code or administrative-boundary layer is redistributed."
  },
  "features": [
    {
      "type": "Feature",
      "id": "w30045716",
      "properties": {
        "source_fid": 12,
        "full_id": "w30045716",
        "osm_id": "30045716",
        "osm_type": "way",
        "highway": "primary",
        "oneway": "yes",
        "name": "Polytechnic Road"
      },
      "geometry": {
        "type": "LineString",
        "coordinates": [
          [
            3.880798019633508,
            7.423
          ],
          [
            3.8810532,
            7.4233469
          ],
          [
            3.8820079,
            7.4246554
          ],
          [
            3.8821516,
            7.4248603
          ],
          [
            3.8822928,
            7.4250601
          ],
          [
            3.8824908,
            7.4253337
          ],
          [
            3.8827871,
            7.4257296
          ],
          [
            3.882971,
            7.4259481
          ],
          [
            3.8830923,
            7.4260646
          ],
          [
            3.8831946,
            7.4261628
          ],
          [
            3.8832909,
            7.4262467
          ],
          [
            3.8833867,
            7.4263225
          ],
          [
            3.8835979,
            7.4264583
          ],
          [
            3.8836542,
            7.4264919
          ],
          [
            3.8836731,
            7.426502
          ],
          [
            3.8837409,
            7.4265344
          ],
          [
            3.8837661,
            7.4265464
          ],
          [
            3.8839493,
            7.4266369
          ],
          [
            3.884,
            7.426659041351889
          ]
        ]
      }
    },
    {
      "type": "Feature",
      "id": "w30045719",
      "properties": {
        "source_fid": 13,
        "full_id": "w30045719",
        "osm_id": "30045719",
        "osm_type": "way",
        "highway": "primary",
        "oneway": "yes",
        "name": "Polytechnic Road"
      },
      "geometry": {
        "type": "LineString",
        "coordinates": [
          [
            3.884,
            7.426741981314168
          ],
          [
            3.8838984,
            7.4267001
          ],
          [
            3.8836975,
            7.4266072
          ],
          [
            3.8836581,
            7.426587
          ],
          [
            3.883614,
            7.4265624
          ],
          [
            3.8835408,
            7.4265202
          ],
          [
            3.8833478,
            7.4263963
          ],
          [
            3.8831704,
            7.4262637
          ],
          [
            3.8829591,
            7.4260693
          ],
          [
            3.8828687,
            7.4259743
          ],
          [
            3.8827484,
            7.4258239
          ],
          [
            3.8826393,
            7.4256669
          ],
          [
            3.8823313,
            7.4252473
          ],
          [
            3.8819352,
            7.4247048
          ],
          [
            3.881591,
            7.4242485
          ],
          [
            3.8815119,
            7.4241315
          ],
          [
            3.8814381,
            7.4240291
          ],
          [
            3.881245,
            7.4237525
          ],
          [
            3.8807542,
            7.423045
          ],
          [
            3.8807210572847084,
            7.423
          ]
        ]
      }
    },
    {
      "type": "Feature",
      "id": "w30764960",
      "properties": {
        "source_fid": 58,
        "full_id": "w30764960",
        "osm_id": "30764960",
        "osm_type": "way",
        "highway": "secondary",
        "name": "Ijokodo Road"
      },
      "geometry": {
        "type": "LineString",
        "coordinates": [
          [
            3.8835323,
            7.426723
          ],
          [
            3.8835181,
            7.4267367
          ],
          [
            3.8834628,
            7.426771
          ],
          [
            3.8833683,
            7.4268042
          ],
          [
            3.8833029,
            7.4268219
          ],
          [
            3.8831292,
            7.4268378
          ],
          [
            3.8825944,
            7.4268733
          ],
          [
            3.882228,
            7.4268883
          ],
          [
            3.8817443,
            7.4269233
          ],
          [
            3.8814354,
            7.4269429
          ],
          [
            3.8809821,
            7.4269695
          ],
          [
            3.8808875,
            7.4269752
          ],
          [
            3.880711,
            7.4269858
          ],
          [
            3.8800742,
            7.427024
          ],
          [
            3.8798536,
            7.4270305
          ],
          [
            3.8797255,
            7.4270353
          ],
          [
            3.8795451,
            7.4270525
          ],
          [
            3.8794264,
            7.4270825
          ],
          [
            3.879238,
            7.4271955
          ],
          [
            3.879183,
            7.4272321
          ],
          [
            3.87913,
            7.42729
          ],
          [
            3.8790898,
            7.4273451
          ],
          [
            3.8790597,
            7.4274409
          ],
          [
            3.8790348,
            7.4274715
          ],
          [
            3.8790087,
            7.4275599
          ],
          [
            3.8789925,
            7.4276511
          ],
          [
            3.8789704,
            7.4278206
          ],
          [
            3.8789403,
            7.4281198
          ],
          [
            3.8789215,
            7.4284456
          ],
          [
            3.8789128,
            7.4286112
          ],
          [
            3.8788712,
            7.4288725
          ],
          [
            3.8788068,
            7.4291391
          ],
          [
            3.8787812,
            7.4292502
          ],
          [
            3.878719,
            7.429439
          ],
          [
            3.8785976,
            7.4298153
          ],
          [
            3.878513,
            7.4300804
          ],
          [
            3.8784655,
            7.4302542
          ],
          [
            3.8782811,
            7.4307728
          ],
          [
            3.8782409,
            7.4309244
          ],
          [
            3.8782147,
            7.4311026
          ],
          [
            3.8782067,
            7.4312682
          ],
          [
            3.8782228,
            7.4313719
          ],
          [
            3.8782429,
            7.4314411
          ],
          [
            3.8782999,
            7.4315614
          ],
          [
            3.8783119,
            7.4316233
          ],
          [
            3.8784125,
            7.4317356
          ],
          [
            3.878596897047971,
            7.432
          ]
        ]
      }
    },
    {
      "type": "Feature",
      "id": "w97398656",
      "properties": {
        "source_fid": 1744,
        "full_id": "w97398656",
        "osm_id": "97398656",
        "osm_type": "way",
        "highway": "service"
      },
      "geometry": {
        "type": "LineString",
        "coordinates": [
          [
            3.8839576,
            7.4252639
          ],
          [
            3.8839607,
            7.4252872
          ],
          [
            3.8838583,
            7.4256157
          ],
          [
            3.8836536,
            7.4263245
          ],
          [
            3.8836271,
            7.4263955
          ],
          [
            3.8835979,
            7.4264583
          ]
        ]
      }
    },
    {
      "type": "Feature",
      "id": "w97398664",
      "properties": {
        "source_fid": 1749,
        "full_id": "w97398664",
        "osm_id": "97398664",
        "osm_type": "way",
        "highway": "service"
      },
      "geometry": {
        "type": "LineString",
        "coordinates": [
          [
            3.8833553,
            7.4240863
          ],
          [
            3.8838355,
            7.4242964
          ],
          [
            3.884,
            7.424359291778829
          ]
        ]
      }
    },
    {
      "type": "Feature",
      "id": "w97398670",
      "properties": {
        "source_fid": 1752,
        "full_id": "w97398670",
        "osm_id": "97398670",
        "osm_type": "way",
        "highway": "service"
      },
      "geometry": {
        "type": "LineString",
        "coordinates": [
          [
            3.884,
            7.423304885549578
          ],
          [
            3.8839186,
            7.4233881
          ],
          [
            3.8833553,
            7.4240863
          ],
          [
            3.8832776,
            7.4241767
          ],
          [
            3.8830831,
            7.4244241
          ],
          [
            3.8829168,
            7.4245704
          ],
          [
            3.8826037,
            7.4248138
          ],
          [
            3.8824231,
            7.4249315
          ],
          [
            3.8822928,
            7.4250601
          ]
        ]
      }
    },
    {
      "type": "Feature",
      "id": "w97398676",
      "properties": {
        "source_fid": 1756,
        "full_id": "w97398676",
        "osm_id": "97398676",
        "osm_type": "way",
        "highway": "residential"
      },
      "geometry": {
        "type": "LineString",
        "coordinates": [
          [
            3.8839493,
            7.4266369
          ],
          [
            3.884,
            7.426518557855362
          ]
        ]
      }
    },
    {
      "type": "Feature",
      "id": "w97398677",
      "properties": {
        "source_fid": 1757,
        "full_id": "w97398677",
        "osm_id": "97398677",
        "osm_type": "way",
        "highway": "service"
      },
      "geometry": {
        "type": "LineString",
        "coordinates": [
          [
            3.8839576,
            7.4252639
          ],
          [
            3.8839218,
            7.425246
          ],
          [
            3.8836992,
            7.4251941
          ],
          [
            3.8834625,
            7.4251396
          ],
          [
            3.8833585,
            7.4250944
          ],
          [
            3.8832548,
            7.4250364
          ],
          [
            3.8830616,
            7.4249328
          ],
          [
            3.8828885,
            7.4248942
          ],
          [
            3.8827894,
            7.4248775
          ],
          [
            3.8826037,
            7.4248138
          ]
        ]
      }
    },
    {
      "type": "Feature",
      "id": "w97409192",
      "properties": {
        "source_fid": 1761,
        "full_id": "w97409192",
        "osm_id": "97409192",
        "osm_type": "way",
        "highway": "unclassified"
      },
      "geometry": {
        "type": "LineString",
        "coordinates": [
          [
            3.877,
            7.426303806074766
          ],
          [
            3.8772397,
            7.4264707
          ],
          [
            3.8775013,
            7.4266872
          ],
          [
            3.8776642,
            7.4268272
          ],
          [
            3.8778292,
            7.4270347
          ],
          [
            3.8779097,
            7.4272082
          ]
        ]
      }
    },
    {
      "type": "Feature",
      "id": "w97409196",
      "properties": {
        "source_fid": 1762,
        "full_id": "w97409196",
        "osm_id": "97409196",
        "osm_type": "way",
        "highway": "unclassified"
      },
      "geometry": {
        "type": "LineString",
        "coordinates": [
          [
            3.8825944,
            7.4268733
          ],
          [
            3.882605,
            7.426235
          ],
          [
            3.8826393,
            7.4256669
          ]
        ]
      }
    },
    {
      "type": "Feature",
      "id": "w97409198",
      "properties": {
        "source_fid": 1763,
        "full_id": "w97409198",
        "osm_id": "97409198",
        "osm_type": "way",
        "highway": "unclassified"
      },
      "geometry": {
        "type": "LineString",
        "coordinates": [
          [
            3.877,
            7.427224051615695
          ],
          [
            3.8772585,
            7.4274249
          ],
          [
            3.8773149,
            7.4274528
          ],
          [
            3.8774939,
            7.427377
          ],
          [
            3.877627,
            7.427536
          ],
          [
            3.8777115,
            7.4276697
          ],
          [
            3.8778383,
            7.4278321
          ],
          [
            3.8779651,
            7.4279732
          ],
          [
            3.8780449,
            7.4280856
          ]
        ]
      }
    },
    {
      "type": "Feature",
      "id": "w97409212",
      "properties": {
        "source_fid": 1764,
        "full_id": "w97409212",
        "osm_id": "97409212",
        "osm_type": "way",
        "highway": "unclassified"
      },
      "geometry": {
        "type": "LineString",
        "coordinates": [
          [
            3.8814736,
            7.4256872
          ],
          [
            3.8813524,
            7.4256858
          ],
          [
            3.8812921,
            7.4257123
          ],
          [
            3.8811993,
            7.4257899
          ],
          [
            3.8811095,
            7.4258577
          ],
          [
            3.8810478,
            7.4258843
          ],
          [
            3.8809633,
            7.4258936
          ],
          [
            3.8808252,
            7.4259082
          ],
          [
            3.8807528,
            7.4259135
          ],
          [
            3.8804135,
            7.4259069
          ],
          [
            3.8801895,
            7.4259242
          ],
          [
            3.8799347,
            7.4259694
          ],
          [
            3.8796785,
            7.4260173
          ],
          [
            3.8794331,
            7.4260386
          ],
          [
            3.8791703,
            7.4260226
          ]
        ]
      }
    },
    {
      "type": "Feature",
      "id": "w97409216",
      "properties": {
        "source_fid": 1765,
        "full_id": "w97409216",
        "osm_id": "97409216",
        "osm_type": "way",
        "highway": "unclassified"
      },
      "geometry": {
        "type": "LineString",
        "coordinates": [
          [
            3.882605,
            7.426235
          ],
          [
            3.882322,
            7.426235
          ],
          [
            3.8820188,
            7.4262673
          ],
          [
            3.8817346,
            7.4262722
          ],
          [
            3.8813658,
            7.4262583
          ],
          [
            3.8813492,
            7.426259
          ],
          [
            3.8813405,
            7.4262653
          ],
          [
            3.8813348,
            7.4262726
          ],
          [
            3.881308,
            7.4263032
          ],
          [
            3.8812423,
            7.4263404
          ],
          [
            3.8811672,
            7.4263737
          ],
          [
            3.8810854,
            7.4263777
          ],
          [
            3.8810129,
            7.426375
          ],
          [
            3.8809204,
            7.4263803
          ],
          [
            3.8807649,
            7.4263883
          ],
          [
            3.8804631,
            7.4263963
          ],
          [
            3.8801238,
            7.4264348
          ],
          [
            3.879869,
            7.4264827
          ],
          [
            3.8795994,
            7.4265067
          ],
          [
            3.8793473,
            7.4265174
          ],
          [
            3.8791636,
            7.4265293
          ],
          [
            3.8790885,
            7.4265413
          ]
        ]
      }
    },
    {
      "type": "Feature",
      "id": "w97409225",
      "properties": {
        "source_fid": 1767,
        "full_id": "w97409225",
        "osm_id": "97409225",
        "osm_type": "way",
        "highway": "unclassified"
      },
      "geometry": {
        "type": "LineString",
        "coordinates": [
          [
            3.8794687,
            7.4246136
          ],
          [
            3.8799765,
            7.4246778
          ],
          [
            3.8805075,
            7.424715
          ],
          [
            3.8809474,
            7.4247535
          ],
          [
            3.8810813,
            7.4247792
          ],
          [
            3.8813202,
            7.4248054
          ],
          [
            3.8814528,
            7.4248231
          ],
          [
            3.881591,
            7.4248217
          ],
          [
            3.8817479,
            7.4248098
          ],
          [
            3.8817856,
            7.4248014
          ],
          [
            3.8818166,
            7.4247915
          ],
          [
            3.8818381,
            7.4247762
          ],
          [
            3.8819352,
            7.4247048
          ]
        ]
      }
    },
    {
      "type": "Feature",
      "id": "w97409237",
      "properties": {
        "source_fid": 1769,
        "full_id": "w97409237",
        "osm_id": "97409237",
        "osm_type": "way",
        "highway": "unclassified"
      },
      "geometry": {
        "type": "LineString",
        "coordinates": [
          [
            3.877,
            7.423027863473054
          ],
          [
            3.8770580958382883,
            7.423
          ]
        ]
      }
    },
    {
      "type": "Feature",
      "id": "w97409241",
      "properties": {
        "source_fid": 1771,
        "full_id": "w97409241",
        "osm_id": "97409241",
        "osm_type": "way",
        "highway": "unclassified"
      },
      "geometry": {
        "type": "LineString",
        "coordinates": [
          [
            3.8776018,
            7.4257075
          ],
          [
            3.8775381,
            7.4257473
          ],
          [
            3.8774993,
            7.4257586
          ],
          [
            3.8774832,
            7.4257673
          ],
          [
            3.8774081,
            7.4258278
          ],
          [
            3.8772163,
            7.4259774
          ],
          [
            3.8771076,
            7.4260991
          ],
          [
            3.8770674,
            7.4261862
          ],
          [
            3.8770238,
            7.42625
          ],
          [
            3.877,
            7.42627438190709
          ]
        ]
      }
    },
    {
      "type": "Feature",
      "id": "w97409255",
      "properties": {
        "source_fid": 1775,
        "full_id": "w97409255",
        "osm_id": "97409255",
        "osm_type": "way",
        "highway": "unclassified"
      },
      "geometry": {
        "type": "LineString",
        "coordinates": [
          [
            3.8798477,
            7.4235234
          ],
          [
            3.8797494,
            7.4237285
          ],
          [
            3.8796371,
            7.4239131
          ],
          [
            3.8795433,
            7.4242828
          ],
          [
            3.8794687,
            7.4246136
          ],
          [
            3.8794618,
            7.4246597
          ],
          [
            3.8793046,
            7.4253493
          ],
          [
            3.8791703,
            7.4260226
          ],
          [
            3.8790885,
            7.4265413
          ],
          [
            3.8790363,
            7.4269132
          ],
          [
            3.8790114,
            7.4272301
          ]
        ]
      }
    },
    {
      "type": "Feature",
      "id": "w97409265",
      "properties": {
        "source_fid": 1777,
        "full_id": "w97409265",
        "osm_id": "97409265",
        "osm_type": "way",
        "highway": "unclassified",
        "layer": "1"
      },
      "geometry": {
        "type": "LineString",
        "coordinates": [
          [
            3.877,
            7.424759616907217
          ],
          [
            3.8770969,
            7.4247114
          ],
          [
            3.8771492,
            7.4246961
          ],
          [
            3.8772082,
            7.4246921
          ],
          [
            3.8774315,
            7.4246874
          ],
          [
            3.877628,
            7.4246954
          ],
          [
            3.8778748,
            7.4246768
          ],
          [
            3.878082,
            7.4246701
          ],
          [
            3.8783287,
            7.4246382
          ],
          [
            3.8786197,
            7.4246123
          ],
          [
            3.878786,
            7.4246096
          ],
          [
            3.8788383,
            7.424611
          ],
          [
            3.8791502,
            7.4246123
          ],
          [
            3.8792923,
            7.4246176
          ],
          [
            3.8794618,
            7.4246597
          ]
        ]
      }
    },
    {
      "type": "Feature",
      "id": "w97409278",
      "properties": {
        "source_fid": 1780,
        "full_id": "w97409278",
        "osm_id": "97409278",
        "osm_type": "way",
        "highway": "unclassified",
        "layer": "1"
      },
      "geometry": {
        "type": "LineString",
        "coordinates": [
          [
            3.8788383,
            7.424611
          ],
          [
            3.8787748,
            7.42484
          ],
          [
            3.8787303,
            7.4249494
          ],
          [
            3.8787142,
            7.4250798
          ],
          [
            3.8787185,
            7.4254358
          ],
          [
            3.8786955,
            7.425504
          ],
          [
            3.8786405,
            7.4255492
          ],
          [
            3.8781624,
            7.4256695
          ]
        ]
      }
    },
    {
      "type": "Feature",
      "id": "w97409302",
      "properties": {
        "source_fid": 1785,
        "full_id": "w97409302",
        "osm_id": "97409302",
        "osm_type": "way",
        "highway": "unclassified"
      },
      "geometry": {
        "type": "LineString",
        "coordinates": [
          [
            3.877,
            7.429027126503759
          ],
          [
            3.8772498,
            7.4287893
          ],
          [
            3.8775234,
            7.4285413
          ],
          [
            3.877679,
            7.4284117
          ],
          [
            3.8780449,
            7.4280856
          ],
          [
            3.878198,
            7.4279243
          ],
          [
            3.8783596,
            7.4277793
          ],
          [
            3.8784897,
            7.4276736
          ],
          [
            3.8785641,
            7.4276151
          ],
          [
            3.8786687,
            7.4275373
          ],
          [
            3.8787854,
            7.4274734
          ],
          [
            3.8788592,
            7.4274595
          ],
          [
            3.8789705,
            7.4274468
          ],
          [
            3.8790597,
            7.4274409
          ]
        ]
      }
    },
    {
      "type": "Feature",
      "id": "w97409310",
      "properties": {
        "source_fid": 1787,
        "full_id": "w97409310",
        "osm_id": "97409310",
        "osm_type": "way",
        "highway": "unclassified"
      },
      "geometry": {
        "type": "LineString",
        "coordinates": [
          [
            3.8817346,
            7.4262722
          ],
          [
            3.8817443,
            7.4269233
          ]
        ]
      }
    },
    {
      "type": "Feature",
      "id": "w97409320",
      "properties": {
        "source_fid": 1790,
        "full_id": "w97409320",
        "osm_id": "97409320",
        "osm_type": "way",
        "highway": "unclassified"
      },
      "geometry": {
        "type": "LineString",
        "coordinates": [
          [
            3.877,
            7.423515655012854
          ],
          [
            3.8771345,
            7.4234427
          ],
          [
            3.8774141,
            7.4232891
          ],
          [
            3.877457,
            7.4232558
          ],
          [
            3.8774684,
            7.4232126
          ],
          [
            3.8774684,
            7.4231814
          ],
          [
            3.877389183979328,
            7.423
          ]
        ]
      }
    },
    {
      "type": "Feature",
      "id": "w97409347",
      "properties": {
        "source_fid": 1794,
        "full_id": "w97409347",
        "osm_id": "97409347",
        "osm_type": "way",
        "highway": "unclassified"
      },
      "geometry": {
        "type": "LineString",
        "coordinates": [
          [
            3.877,
            7.4276446968236876
          ],
          [
            3.8770024,
            7.4276437
          ],
          [
            3.8774939,
            7.427377
          ],
          [
            3.8775824,
            7.4273458
          ],
          [
            3.8777561,
            7.42726
          ],
          [
            3.8779097,
            7.4272082
          ],
          [
            3.8780558,
            7.4271809
          ],
          [
            3.8782282,
            7.4271536
          ],
          [
            3.8784193,
            7.427145
          ],
          [
            3.8785655,
            7.427145
          ],
          [
            3.8787539,
            7.4271756
          ],
          [
            3.8790114,
            7.4272301
          ],
          [
            3.87913,
            7.42729
          ]
        ]
      }
    },
    {
      "type": "Feature",
      "id": "w97409356",
      "properties": {
        "source_fid": 1795,
        "full_id": "w97409356",
        "osm_id": "97409356",
        "osm_type": "way",
        "highway": "unclassified"
      },
      "geometry": {
        "type": "LineString",
        "coordinates": [
          [
            3.8796371,
            7.4239131
          ],
          [
            3.8793817,
            7.4239263
          ],
          [
            3.8791998,
            7.4239254
          ],
          [
            3.8789725,
            7.4238895
          ],
          [
            3.8787646,
            7.4238609
          ],
          [
            3.8786486,
            7.4238569
          ],
          [
            3.8785104,
            7.4238609
          ],
          [
            3.8783522,
            7.4238793
          ],
          [
            3.8782208,
            7.4239154
          ],
          [
            3.8779747,
            7.4239866
          ],
          [
            3.877748,
            7.4240584
          ],
          [
            3.8775254,
            7.424081
          ],
          [
            3.8773772,
            7.4240896
          ],
          [
            3.8772599,
            7.4240963
          ],
          [
            3.8770386,
            7.4241069
          ],
          [
            3.877,
            7.424123993487699
          ]
        ]
      }
    },
    {
      "type": "Feature",
      "id": "w561469361",
      "properties": {
        "source_fid": 2263,
        "full_id": "w561469361",
        "osm_id": "561469361",
        "osm_type": "way",
        "highway": "residential"
      },
      "geometry": {
        "type": "MultiLineString",
        "coordinates": [
          [
            [
              3.8783119,
              7.4316233
            ],
            [
              3.8777514,
              7.4319903
            ],
            [
              3.877726110714285,
              7.432
            ]
          ],
          [
            [
              3.8775008421383665,
              7.432
            ],
            [
              3.8774973,
              7.4319996
            ],
            [
              3.8770487,
              7.431975
            ],
            [
              3.877,
              7.431968355599369
            ]
          ]
        ]
      }
    },
    {
      "type": "Feature",
      "id": "w561469362",
      "properties": {
        "source_fid": 2264,
        "full_id": "w561469362",
        "osm_id": "561469362",
        "osm_type": "way",
        "highway": "residential"
      },
      "geometry": {
        "type": "LineString",
        "coordinates": [
          [
            3.877679,
            7.4284117
          ],
          [
            3.8778587,
            7.4286145
          ],
          [
            3.8781098,
            7.4288695
          ],
          [
            3.878135,
            7.4288951
          ],
          [
            3.878308,
            7.4290227
          ],
          [
            3.8784756,
            7.4291211
          ],
          [
            3.8787812,
            7.4292502
          ]
        ]
      }
    },
    {
      "type": "Feature",
      "id": "w561663521",
      "properties": {
        "source_fid": 2267,
        "full_id": "w561663521",
        "osm_id": "561663521",
        "osm_type": "way",
        "highway": "unclassified"
      },
      "geometry": {
        "type": "LineString",
        "coordinates": [
          [
            3.878082,
            7.4246701
          ],
          [
            3.8780947,
            7.4248044
          ],
          [
            3.8780947,
            7.4251988
          ],
          [
            3.8781242,
            7.4254395
          ],
          [
            3.8781624,
            7.4256695
          ],
          [
            3.878139,
            7.425736
          ],
          [
            3.8781041,
            7.4257606
          ],
          [
            3.8779546,
            7.4258138
          ],
          [
            3.8778372,
            7.4258683
          ],
          [
            3.877795,
            7.4259036
          ],
          [
            3.8777433,
            7.4259681
          ]
        ]
      }
    },
    {
      "type": "Feature",
      "id": "w561663524",
      "properties": {
        "source_fid": 2270,
        "full_id": "w561663524",
        "osm_id": "561663524",
        "osm_type": "way",
        "highway": "residential"
      },
      "geometry": {
        "type": "LineString",
        "coordinates": [
          [
            3.877,
            7.43069236356383
          ],
          [
            3.8770205,
            7.4306717
          ],
          [
            3.8770775,
            7.4306691
          ],
          [
            3.8771821,
            7.4306737
          ],
          [
            3.8772941,
            7.4306611
          ],
          [
            3.8773578,
            7.4306438
          ],
          [
            3.8774121,
            7.4306052
          ],
          [
            3.8775087,
            7.4305208
          ],
          [
            3.8775757,
            7.4304762
          ],
          [
            3.877685,
            7.4304483
          ],
          [
            3.8778848,
            7.4304437
          ],
          [
            3.8779693,
            7.4304264
          ],
          [
            3.878035,
            7.4304004
          ],
          [
            3.8781651,
            7.430308
          ],
          [
            3.8782422,
            7.4302708
          ],
          [
            3.87832,
            7.4302508
          ],
          [
            3.8783985,
            7.4302488
          ],
          [
            3.8784655,
            7.4302542
          ]
        ]
      }
    },
    {
      "type": "Feature",
      "id": "w561681911",
      "properties": {
        "source_fid": 2278,
        "full_id": "w561681911",
        "osm_id": "561681911",
        "osm_type": "way",
        "highway": "residential"
      },
      "geometry": {
        "type": "LineString",
        "coordinates": [
          [
            3.877,
            7.429812692644135
          ],
          [
            3.8770232,
            7.42979
          ],
          [
            3.8771506,
            7.4296996
          ],
          [
            3.8774041,
            7.4295134
          ],
          [
            3.8776548,
            7.4292953
          ],
          [
            3.8781098,
            7.4288695
          ]
        ]
      }
    },
    {
      "type": "Feature",
      "id": "w561681913",
      "properties": {
        "source_fid": 2279,
        "full_id": "w561681913",
        "osm_id": "561681913",
        "osm_type": "way",
        "highway": "unclassified"
      },
      "geometry": {
        "type": "LineString",
        "coordinates": [
          [
            3.8783522,
            7.4238793
          ],
          [
            3.8782214,
            7.4233725
          ]
        ]
      }
    },
    {
      "type": "Feature",
      "id": "w583402714",
      "properties": {
        "source_fid": 2705,
        "full_id": "w583402714",
        "osm_id": "583402714",
        "osm_type": "way",
        "highway": "residential"
      },
      "geometry": {
        "type": "LineString",
        "coordinates": [
          [
            3.8818310651155064,
            7.432
          ],
          [
            3.8816936,
            7.4315701
          ],
          [
            3.8816527,
            7.4313846
          ],
          [
            3.8820899,
            7.4313367
          ],
          [
            3.8826209,
            7.4312915
          ],
          [
            3.8827175,
            7.4312768
          ],
          [
            3.8827778,
            7.4312356
          ],
          [
            3.8828167,
            7.4311731
          ],
          [
            3.8828395,
            7.4309883
          ],
          [
            3.8828422,
            7.4304404
          ],
          [
            3.8828221,
            7.4303805
          ],
          [
            3.8827845,
            7.4303327
          ],
          [
            3.8827215,
            7.4303114
          ],
          [
            3.8816231,
            7.4303898
          ],
          [
            3.8807976,
            7.4304851
          ],
          [
            3.880333,
            7.4305388
          ],
          [
            3.8801721,
            7.4305534
          ],
          [
            3.8800527,
            7.4306039
          ],
          [
            3.8799588,
            7.4306159
          ],
          [
            3.8798596,
            7.4306053
          ],
          [
            3.8797764,
            7.430612
          ],
          [
            3.8797188,
            7.4305986
          ],
          [
            3.8796142,
            7.4305494
          ],
          [
            3.8795391,
            7.430467
          ]
        ]
      }
    },
    {
      "type": "Feature",
      "id": "w583622643",
      "properties": {
        "source_fid": 2711,
        "full_id": "w583622643",
        "osm_id": "583622643",
        "osm_type": "way",
        "highway": "service"
      },
      "geometry": {
        "type": "LineString",
        "coordinates": [
          [
            3.8805369,
            7.431834
          ],
          [
            3.880561917352185,
            7.432
          ]
        ]
      }
    },
    {
      "type": "Feature",
      "id": "w583622646",
      "properties": {
        "source_fid": 2714,
        "full_id": "w583622646",
        "osm_id": "583622646",
        "osm_type": "way",
        "highway": "service"
      },
      "geometry": {
        "type": "LineString",
        "coordinates": [
          [
            3.879756780346821,
            7.432
          ],
          [
            3.879751,
            7.431975
          ],
          [
            3.8797483,
            7.4319192
          ],
          [
            3.8797764,
            7.4318726
          ],
          [
            3.8804215,
            7.4318088
          ],
          [
            3.8804819,
            7.4318088
          ],
          [
            3.8805369,
            7.431834
          ]
        ]
      }
    },
    {
      "type": "Feature",
      "id": "w583882723",
      "properties": {
        "source_fid": 2730,
        "full_id": "w583882723",
        "osm_id": "583882723",
        "osm_type": "way",
        "highway": "secondary",
        "oneway": "yes",
        "name": "Ijokodo Road"
      },
      "geometry": {
        "type": "LineString",
        "coordinates": [
          [
            3.8837409,
            7.4265344
          ],
          [
            3.8836975,
            7.4266072
          ],
          [
            3.883681,
            7.4266247
          ],
          [
            3.8836482,
            7.4266552
          ],
          [
            3.8835882,
            7.4266912
          ],
          [
            3.8835323,
            7.426723
          ]
        ]
      }
    },
    {
      "type": "Feature",
      "id": "w583882725",
      "properties": {
        "source_fid": 2731,
        "full_id": "w583882725",
        "osm_id": "583882725",
        "osm_type": "way",
        "highway": "secondary",
        "oneway": "yes",
        "name": "Ijokodo Road"
      },
      "geometry": {
        "type": "LineString",
        "coordinates": [
          [
            3.8835323,
            7.426723
          ],
          [
            3.8835624,
            7.4266666
          ],
          [
            3.8835835,
            7.4266204
          ],
          [
            3.8835928,
            7.4266004
          ],
          [
            3.883614,
            7.4265624
          ],
          [
            3.8836542,
            7.4264919
          ]
        ]
      }
    },
    {
      "type": "Feature",
      "id": "w584561487",
      "properties": {
        "source_fid": 2802,
        "full_id": "w584561487",
        "osm_id": "584561487",
        "osm_type": "way",
        "highway": "unclassified"
      },
      "geometry": {
        "type": "LineString",
        "coordinates": [
          [
            3.884,
            7.428734026347306
          ],
          [
            3.8839835,
            7.4288352
          ],
          [
            3.8839761,
            7.4288997
          ],
          [
            3.8839767,
            7.4289562
          ]
        ]
      }
    },
    {
      "type": "Feature",
      "id": "w584591565",
      "properties": {
        "source_fid": 2825,
        "full_id": "w584591565",
        "osm_id": "584591565",
        "osm_type": "way",
        "highway": "residential"
      },
      "geometry": {
        "type": "LineString",
        "coordinates": [
          [
            3.878513,
            7.4300804
          ],
          [
            3.878607,
            7.4301039
          ],
          [
            3.8786875,
            7.4300959
          ],
          [
            3.8787612,
            7.4300534
          ],
          [
            3.8788812,
            7.4298892
          ],
          [
            3.8792256,
            7.4297749
          ]
        ]
      }
    },
    {
      "type": "Feature",
      "id": "w584591567",
      "properties": {
        "source_fid": 2826,
        "full_id": "w584591567",
        "osm_id": "584591567",
        "osm_type": "way",
        "highway": "residential"
      },
      "geometry": {
        "type": "LineString",
        "coordinates": [
          [
            3.8795391,
            7.430467
          ],
          [
            3.8794291,
            7.4303645
          ],
          [
            3.8793433,
            7.4302648
          ],
          [
            3.8793366,
            7.4301039
          ],
          [
            3.8793862,
            7.4300334
          ],
          [
            3.8794023,
            7.4298659
          ],
          [
            3.879354,
            7.4298233
          ],
          [
            3.8792862,
            7.4297808
          ],
          [
            3.8792256,
            7.4297749
          ],
          [
            3.8791883,
            7.4295747
          ],
          [
            3.879362,
            7.4294988
          ],
          [
            3.879692,
            7.4294802
          ],
          [
            3.8800487,
            7.4293845
          ],
          [
            3.8803437,
            7.4292249
          ],
          [
            3.8806254,
            7.4290095
          ],
          [
            3.8807809,
            7.4287967
          ],
          [
            3.8808882,
            7.4286344
          ],
          [
            3.880907,
            7.4284828
          ],
          [
            3.8808507,
            7.4279961
          ]
        ]
      }
    },
    {
      "type": "Feature",
      "id": "w584591569",
      "properties": {
        "source_fid": 2827,
        "full_id": "w584591569",
        "osm_id": "584591569",
        "osm_type": "way",
        "highway": "unclassified"
      },
      "geometry": {
        "type": "LineString",
        "coordinates": [
          [
            3.8800742,
            7.427024
          ],
          [
            3.8801292,
            7.4274535
          ],
          [
            3.8801976,
            7.4279469
          ]
        ]
      }
    },
    {
      "type": "Feature",
      "id": "w584591571",
      "properties": {
        "source_fid": 2828,
        "full_id": "w584591571",
        "osm_id": "584591571",
        "osm_type": "way",
        "highway": "residential"
      },
      "geometry": {
        "type": "LineString",
        "coordinates": [
          [
            3.8816527,
            7.4313846
          ],
          [
            3.8811457,
            7.4314138
          ],
          [
            3.8810143,
            7.4314165
          ],
          [
            3.8809633,
            7.4314085
          ],
          [
            3.8809392,
            7.4313819
          ],
          [
            3.8809003,
            7.4313287
          ],
          [
            3.8808882,
            7.4312675
          ],
          [
            3.8807976,
            7.4304851
          ]
        ]
      }
    },
    {
      "type": "Feature",
      "id": "w783778446",
      "properties": {
        "source_fid": 3362,
        "full_id": "w783778446",
        "osm_id": "783778446",
        "osm_type": "way",
        "highway": "unclassified"
      },
      "geometry": {
        "type": "LineString",
        "coordinates": [
          [
            3.8807649,
            7.4263883
          ],
          [
            3.8807528,
            7.4259135
          ]
        ]
      }
    },
    {
      "type": "Feature",
      "id": "w783778447",
      "properties": {
        "source_fid": 3363,
        "full_id": "w783778447",
        "osm_id": "783778447",
        "osm_type": "way",
        "highway": "unclassified"
      },
      "geometry": {
        "type": "LineString",
        "coordinates": [
          [
            3.881245,
            7.4237525
          ],
          [
            3.880915,
            7.4239799
          ],
          [
            3.8804376,
            7.4242659
          ],
          [
            3.8803625,
            7.4242871
          ],
          [
            3.8802673,
            7.4242991
          ],
          [
            3.8795433,
            7.4242828
          ]
        ]
      }
    },
    {
      "type": "Feature",
      "id": "w1227922634",
      "properties": {
        "source_fid": 4131,
        "full_id": "w1227922634",
        "osm_id": "1227922634",
        "osm_type": "way",
        "highway": "unclassified"
      },
      "geometry": {
        "type": "LineString",
        "coordinates": [
          [
            3.881574605964261,
            7.423
          ],
          [
            3.8817767,
            7.4232938
          ]
        ]
      }
    },
    {
      "type": "Feature",
      "id": "w1229212166",
      "properties": {
        "source_fid": 4162,
        "full_id": "w1229212166",
        "osm_id": "1229212166",
        "osm_type": "way",
        "highway": "service"
      },
      "geometry": {
        "type": "LineString",
        "coordinates": [
          [
            3.880711,
            7.4269858
          ],
          [
            3.8806941,
            7.4268186
          ],
          [
            3.8806948,
            7.4268036
          ],
          [
            3.8807039,
            7.4267916
          ],
          [
            3.8807223,
            7.4267863
          ],
          [
            3.880842,
            7.4267757
          ],
          [
            3.8808574,
            7.4267767
          ],
          [
            3.8808661,
            7.426784
          ],
          [
            3.8808688,
            7.4267936
          ],
          [
            3.8808875,
            7.4269752
          ]
        ]
      }
    },
    {
      "type": "Feature",
      "id": "w1424163104",
      "properties": {
        "source_fid": 4414,
        "full_id": "w1424163104",
        "osm_id": "1424163104",
        "osm_type": "way",
        "highway": "service"
      },
      "geometry": {
        "type": "LineString",
        "coordinates": [
          [
            3.8830923,
            7.4260646
          ],
          [
            3.8832727,
            7.4257753
          ]
        ]
      }
    },
    {
      "type": "Feature",
      "id": "w1424163105",
      "properties": {
        "source_fid": 4415,
        "full_id": "w1424163105",
        "osm_id": "1424163105",
        "osm_type": "way",
        "highway": "service"
      },
      "geometry": {
        "type": "LineString",
        "coordinates": [
          [
            3.8829168,
            7.4245704
          ],
          [
            3.8835436,
            7.4247353
          ]
        ]
      }
    }
  ]
}
